OBJECT_NAME,OBJECT_ID,EPOCH,MEAN_MOTION,ECCENTRICITY,INCLINATION,RA_OF_ASC_NODE,ARG_OF_PERICENTER,MEAN_ANOMALY,EPHEMERIS_TYPE,CLASSIFICATION_TYPE,NORAD_CAT_ID,ELEMENT_SET_NO,REV_AT_EPOCH,BSTAR,MEAN_MOTION_DOT,MEAN_MOTION_DDOT
STAR ONE D2,2021-069A,2026-06-04T04:06:38.846016,1.00268643,.00016394,0.0112,352.6812,108.8545,142.6533,0,U,49055,999,1781,0,0,0
EUTELSAT QUANTUM,2021-069B,2026-06-05T03:28:40.959264,1.00271293,.0002519,0.0121,327.9922,102.0207,283.4409,0,U,49056,999,1780,0,.138E-5,0
ZHONGXING-2E,2021-071A,2026-06-05T04:27:21.851712,1.00270013,.0002248,0.0428,95.5527,43.9646,279.0037,0,U,49062,999,1791,0,-.279E-5,0
TJS-7,2021-077A,2026-06-05T03:45:07.548768,1.00271610,.0002544,0.4778,86.2436,332.9107,151.2706,0,U,49115,999,943,0,-.112E-5,0
CHINASAT 9B,2021-080A,2026-06-04T12:19:55.627392,1.00268767,.0002073,0.0134,29.6015,61.6976,88.0197,0,U,49125,999,1752,0,-.3E-5,0
SHIJIAN-21 (SJ-21),2021-094A,2026-06-04T20:49:37.449120,1.00277867,.0049331,5.0835,61.2536,167.9485,104.4490,0,U,49330,999,523,0,-.336E-5,0
SES-17,2021-095A,2026-06-04T20:05:17.449728,1.00269514,.0001189,0.0264,36.4551,39.2642,51.7813,0,U,49332,999,1773,0,-.26E-5,0
SYRACUSE 4A,2021-095B,2026-06-05T03:37:38.548704,1.00269568,.0001351,0.0166,332.3221,99.9601,281.2167,0,U,49333,999,1782,0,.147E-5,0
QZS-1R (MICHIBIKI-1R),2021-096A,2026-06-04T17:28:52.946976,1.00260525,.07541261,37.4366,79.7685,271.5405,298.7927,0,U,49336,999,1688,0,-.245E-5,0
ZHONGXING-1D,2021-114A,2026-06-04T07:20:09.530304,1.00269552,.00010297,0.0559,87.3706,80.7015,324.8938,0,U,49505,999,1669,0,-.324E-5,0
STPSAT-6,2021-118A,2026-06-05T02:43:09.952032,1.00273713,.0001448,0.2891,85.5371,263.2086,193.8920,0,U,49817,999,1645,0,-.34E-6,0
EXPRESS AMU-7,2021-123A,2026-06-02T17:09:12.228768,1.00271575,.00006225,0.0165,304.5721,41.0591,307.8527,0,U,50001,999,1639,0,-.23E-5,0
EXPRESS AMU-3,2021-123B,2026-06-03T00:22:03.895968,1.00270974,.00008615,0.0160,318.5718,342.5789,58.8457,0,U,50002,999,689,0,-.309E-5,0
TIANLIAN 2-02,2021-124A,2026-06-05T04:03:45.095616,1.00272656,.000124,0.7704,86.3174,225.5149,173.6845,0,U,50005,999,1650,0,-.2E-7,0
TURKSAT 5B,2021-126A,2026-06-05T03:37:38.548704,1.00272308,.0003728,0.0675,342.3308,16.4611,351.2088,0,U,50212,999,1617,0,.158E-5,0
INMARSAT 6-F1,2021-128A,2026-06-04T22:30:58.663872,1.00271628,.0000318,0.0157,308.4291,190.2339,176.2163,0,U,50319,999,1613,0,-.16E-5,0
SHIYAN-12 01 (SY-12 01),2021-129A,2026-06-03T17:55:24.530880,1.00038141,.0003609,3.6398,80.0898,290.7507,221.5939,0,U,50321,999,1636,0,.7E-7,0
SHIYAN-12 02 (SY-12 02),2021-129B,2026-06-03T17:59:50.846784,1.00492737,.000271,3.6395,80.0970,48.7511,111.6108,0,U,50322,999,1636,0,-.158E-5,0
TJS-9,2021-135A,2026-06-05T05:36:51.113088,1.00273525,.0004919,0.0652,257.4385,149.3621,68.2859,0,U,50574,999,1631,0,-.286E-5,0
GOES 18,2022-021A,2026-06-05T02:35:55.646016,1.00271887,.0000598,0.0403,134.5400,348.0435,32.9433,0,U,51850,999,647,0,.109E-5,0
ZHONGXING-6D,2022-038A,2026-06-04T22:46:07.438080,1.00271055,.0000345,0.0300,94.4122,253.3105,12.2815,0,U,52255,999,1529,0,-.341E-5,0
NILESAT 301,2022-061A,2026-06-05T03:13:04.954368,1.00272133,.0005678,0.0528,20.6982,22.3492,251.7902,0,U,52817,999,1461,0,-.45E-6,0
CMS-02 (GSAT-24),2022-067A,2026-06-05T01:55:59.475936,1.00271904,.0001907,0.0116,19.7932,355.7271,350.0070,0,U,52903,999,1448,0,-.153E-5,0
MEASAT 3D,2022-067B,2026-06-05T03:41:02.272992,1.00271314,.0001373,0.0274,351.9939,44.6545,3.7118,0,U,52904,999,1452,0,-.229E-5,0
SES-22,2022-071A,2026-06-05T05:00:31.464864,1.00272992,.000135,0.0157,348.3166,77.8285,123.6275,0,U,52933,999,740,0,.117E-5,0
WFOV (USA 332),2022-073A,2026-06-04T16:59:38.757408,1.00269264,.00018484,3.6786,78.6864,247.4262,301.1910,0,U,52940,999,1424,0,-.351E-5,0
TIANLIAN 2-03,2022-078A,2026-06-05T03:18:04.476384,1.00272055,.0001558,0.6417,76.7847,314.1877,282.7080,0,U,53100,999,1442,0,.84E-6,0
SBIRS GEO-6 (USA 336),2022-092A,2026-06-05T03:54:45.957024,1.00271584,.0002177,3.2787,317.2850,113.3245,20.6958,0,U,53355,999,1411,0,-.281E-5,0
EUTELSAT KONNECT VHTS,2022-110A,2026-06-05T04:29:38.585760,1.00271249,.0002875,0.0658,104.1532,316.5455,263.0462,0,U,53765,999,671,0,.29E-6,0
ZHONGXING-1E,2022-112A,2026-06-05T05:07:38.604000,1.00271369,.0000403,0.0396,103.3934,265.8360,42.7482,0,U,53813,999,1372,0,-.137E-5,0
SES-20,2022-123A,2026-06-05T03:18:28.073952,1.00269926,.0002167,0.0386,77.6014,14.9665,107.5266,0,U,53960,999,1341,0,-.89E-6,0
SES-21,2022-123B,2026-06-05T03:43:15.652128,1.00270014,.0000891,0.0274,31.7901,38.1900,108.4159,0,U,53961,999,709,0,.82E-6,0
